NORAD_CAT_ID,OBJECT_NAME,OBJECT_TYPE,EPOCH,MEAN_MOTION,ECCENTRICITY,INCLINATION,RA_OF_ASC_NODE,ARG_OF_PERICENTER,MEAN_ANOMALY,BSTAR,MEAN_MOTION_DOT,MEAN_MOTION_DDOT,TLE_LINE0,TLE_LINE1,TLE_LINE2,SEMIMAJOR_AXIS,PERIOD,APOGEE,PERIGEE,DECAYED
51748.0,STARLINK-3501,PAYLOAD,2023-05-31 18:21:41,15.08836997,0.0001026,53.2153,176.3131,88.0126,272.0984,2.3767e-05,9e-07,0.0,0 STARLINK-3501,1 51748U 22016AL  23151.76506907  .00000090  00000-0  23767-4 0  9996,2 51748  53.2153 176.3131 0001026  88.0126 272.0984 15.08836997 70782,6917.89,95.438,540.464,539.045,0.0
51748.0,STARLINK-3501,PAYLOAD,2023-06-01 07:04:47,15.08832641,0.0001059,53.2157,173.9356,94.6551,265.4562,6.3693e-05,7.26e-06,0.0,0 STARLINK-3501,1 51748U 22016AL  23152.29499257  .00000726  00000-0  63693-4 0  9992,2 51748  53.2157 173.9356 0001059  94.6551 265.4562 15.08832641 70868,6917.903,95.438,540.5,539.035,0.0
51748.0,STARLINK-3501,PAYLOAD,2023-06-02 11:41:43,15.0883929,0.0001097,53.2157,168.5817,86.5906,273.5211,3.7314e-05,3.06e-06,0.0,0 STARLINK-3501,1 51748U 22016AL  23153.48731233  .00000306  00000-0  37314-4 0  9992,2 51748  53.2157 168.5817 0001097  86.5906 273.5211 15.08839290 72114,6917.883,95.438,540.506,538.989,0.0
51748.0,STARLINK-3501,PAYLOAD,2023-06-02 18:03:16,15.08837857,0.0001101,53.2159,167.3924,86.8111,273.3007,3.5563e-05,2.78e-06,0.0,0 STARLINK-3501,1 51748U 22016AL  23153.75227352  .00000278  00000-0  35563-4 0  9996,2 51748  53.2159 167.3924 0001101  86.8111 273.3007 15.08837857 71082,6917.887,95.438,540.514,538.99,0.0
51748.0,STARLINK-3501,PAYLOAD,2023-06-03 09:57:07,15.08837859,0.0001098,53.2157,164.4186,86.2398,273.8719,4.3909e-05,4.11e-06,0.0,0 STARLINK-3501,1 51748U 22016AL  23154.41467446  .00000411  00000-0  43909-4 0  9992,2 51748  53.2157 164.4186 0001098  86.2398 273.8719 15.08837859 71182,6917.887,95.438,540.512,538.992,0.0
51748.0,STARLINK-3501,PAYLOAD,2023-06-03 17:54:03,15.08839416,0.0001094,53.2158,162.9319,86.1373,273.9744,5.0474e-05,5.16e-06,0.0,0 STARLINK-3501,1 51748U 22016AL  23154.74587334  .00000516  00000-0  50474-4 0  9998,2 51748  53.2158 162.9319 0001094  86.1373 273.9744 15.08839416 72307,6917.882,95.438,540.504,538.99,0.0
51748.0,STARLINK-3501,PAYLOAD,2023-06-04 06:37:08,15.08842139,0.0001053,53.2156,160.553,86.0715,274.0398,5.6792e-05,6.16e-06,0.0,0 STARLINK-3501,1 51748U 22016AL  23155.27579108  .00000616  00000-0  56792-4 0  9997,2 51748  53.2156 160.5530 0001053  86.0715 274.0398 15.08842139 71311,6917.874,95.437,540.467,539.01,0.0
51748.0,STARLINK-3501,PAYLOAD,2023-06-05 01:41:46,15.08839692,0.000104,53.2158,156.9848,84.9573,275.1538,4.7278e-05,4.65e-06,0.0,0 STARLINK-3501,1 51748U 22016AL  23156.07067203  .00000465  00000-0  47278-4 0  9995,2 51748  53.2158 156.9848 0001040  84.9573 275.1538 15.08839692 72509,6917.881,95.438,540.466,539.027,0.0
51748.0,STARLINK-3501,PAYLOAD,2023-06-05 06:27:55,15.08841168,0.0001034,53.2158,156.0926,84.9771,275.1339,4.0964e-05,3.64e-06,0.0,0 STARLINK-3501,1 51748U 22016AL  23156.26939120  .00000364  00000-0  40964-4 0  9995,2 51748  53.2158 156.0926 0001034  84.9771 275.1339 15.08841168 71464,6917.877,95.437,540.457,539.027,0.0
51748.0,STARLINK-3501,PAYLOAD,2023-06-05 19:11:00,15.08839752,0.0001071,53.2158,153.7137,87.192,272.9195,1.031e-05,-1.24e-06,0.0,0 STARLINK-3501,1 51748U 22016AL  23156.79931281 -.00000124  00000-0  10310-4 0  9990,2 51748  53.2158 153.7137 0001071  87.1920 272.9195 15.08839752 71544,6917.881,95.438,540.487,539.005,0.0
51748.0,STARLINK-3501,PAYLOAD,2023-06-06 03:07:56,15.08837819,0.0001066,53.2158,152.2271,85.1517,274.9596,-8.4923e-06,-4.23e-06,0.0,0 STARLINK-3501,1 51748U 22016AL  23157.13051490 -.00000423  00000-0 -84923-5 0  9999,2 51748  53.2158 152.2271 0001066  85.1517 274.9596 15.08837819 72664,6917.887,95.438,540.49,539.015,0.0
51748.0,STARLINK-3501,PAYLOAD,2023-06-06 09:29:28,15.08838646,0.0001081,53.2159,151.0375,87.4722,272.6393,4.5009e-06,-2.16e-06,0.0,0 STARLINK-3501,1 51748U 22016AL  23157.39547386 -.00000216  00000-0  45009-5 0  9992,2 51748  53.2159 151.0375 0001081  87.4722 272.6393 15.08838646 71632,6917.885,95.438,540.497,539.002,0.0
51748.0,STARLINK-3501,PAYLOAD,2023-06-07 06:09:29,15.08837564,0.0001077,53.2164,147.1715,88.4291,271.6825,1.0973e-05,-1.13e-06,0.0,0 STARLINK-3501,1 51748U 22016AL  23158.25659554 -.00000113  00000-0  10973-4 0  9996,2 51748  53.2164 147.1715 0001077  88.4291 271.6825 15.08837564 72839,6917.888,95.438,540.498,539.008,0.0
51748.0,STARLINK-3501,PAYLOAD,2023-06-07 15:41:48,15.08836578,0.0001082,53.2164,145.3874,87.6274,272.4842,1.1375e-05,-1.07e-06,0.0,0 STARLINK-3501,1 51748U 22016AL  23158.65403689 -.00000107  00000-0  11375-4 0  9996,2 51748  53.2164 145.3874 0001082  87.6274 272.4842 15.08836578 71823,6917.891,95.438,540.504,539.007,0.0
51748.0,STARLINK-3501,PAYLOAD,2023-06-08 09:11:03,15.08838572,0.0001064,53.2165,142.1164,86.8537,273.2577,4.9757e-05,5.04e-06,0.0,0 STARLINK-3501,1 51748U 22016AL  23159.38267610  .00000504  00000-0  49757-4 0  9994,2 51748  53.2165 142.1164 0001064  86.8537 273.2577 15.08838572 73006,6917.885,95.438,540.486,539.014,0.0
51748.0,STARLINK-3501,PAYLOAD,2023-06-09 09:01:50,15.08839868,0.0001051,53.2162,137.6559,87.2016,272.9097,5.5666e-05,5.98e-06,0.0,0 STARLINK-3501,1 51748U 22016AL  23160.37627711  .00000598  00000-0  55666-4 0  9996,2 51748  53.2162 137.6559 0001051  87.2016 272.9097 15.08839868 72082,6917.881,95.438,540.473,539.019,0.0
51748.0,STARLINK-3501,PAYLOAD,2023-06-09 15:23:23,15.088346,9.8e-05,53.2155,136.4663,87.3723,272.7381,2.1244e-05,5e-07,0.0,0 STARLINK-3501,1 51748U 22016AL  23160.64124183  .00000050  00000-0  21244-4 0  9999,2 51748  53.2155 136.4663 0000980  87.3723 272.7381 15.08834600 73199,6917.897,95.438,540.44,539.084,0.0
51748.0,STARLINK-3501,PAYLOAD,2023-06-10 07:17:14,15.08838919,0.0001081,53.2155,133.4926,93.2979,266.8137,2.566e-05,1.21e-06,0.0,0 STARLINK-3501,1 51748U 22016AL  23161.30364107  .00000121  00000-0  25660-4 0  9990,2 51748  53.2155 133.4926 0001081  93.2979 266.8137 15.08838919 72223,6917.884,95.438,540.497,539.001,0.0
51748.0,STARLINK-3501,PAYLOAD,2023-06-11 03:57:15,15.08838869,0.0001118,53.2158,129.6268,96.977,263.135,3.3809e-05,2.5e-06,0.0,0 STARLINK-3501,1 51748U 22016AL  23162.16476221  .00000250  00000-0  33809-4 0  9993,2 51748  53.2158 129.6268 0001118  96.9770 263.1350 15.08838869 73426,6917.884,95.438,540.522,538.975,0.0
51748.0,STARLINK-3501,PAYLOAD,2023-06-11 05:32:38,15.08841303,0.0001156,53.2162,129.3294,91.6467,268.4657,5.0636e-05,5.18e-06,0.0,0 STARLINK-3501,1 51748U 22016AL  23162.23100041  .00000518  00000-0  50636-4 0  9999,2 51748  53.2162 129.3294 0001156  91.6467 268.4657 15.08841303 72361,6917.876,95.437,540.541,538.942,0.0
51748.0,STARLINK-3501,PAYLOAD,2023-06-11 21:26:30,15.08834456,0.0001181,53.2162,126.3553,89.9268,270.186,2.8812e-05,1.71e-06,0.0,0 STARLINK-3501,1 51748U 22016AL  23162.89340647  .00000171  00000-0  28812-4 0  9995,2 51748  53.2162 126.3553 0001181  89.9268 270.1860 15.08834456 72461,6917.897,95.438,540.579,538.945,0.0
51748.0,STARLINK-3501,PAYLOAD,2023-06-12 03:48:02,15.08837,0.0001174,53.2161,125.1659,89.7405,270.3722,5.6772e-05,6.16e-06,0.0,0 STARLINK-3501,1 51748U 22016AL  23163.15836449  .00000616  00000-0  56772-4 0  9995,2 51748  53.2161 125.1659 0001174  89.7405 270.3722 15.08837000 72509,6917.89,95.438,540.567,538.942,0.0
51748.0,STARLINK-3501,PAYLOAD,2023-06-12 14:55:44,15.08841071,0.0001182,53.2165,123.085,86.9802,273.1325,4.8298e-05,4.81e-06,0.0,0 STARLINK-3501,1 51748U 22016AL  23163.62204238  .00000481  00000-0  48298-4 0  9996,2 51748  53.2165 123.0850 0001182  86.9802 273.1325 15.08841071 73641,6917.877,95.437,540.56,538.924,0.0
51748.0,STARLINK-3501,PAYLOAD,2023-06-12 21:17:17,15.08841333,0.0001239,53.2171,121.8963,89.1807,270.9327,3.2616e-05,2.31e-06,0.0,0 STARLINK-3501,1 51748U 22016AL  23163.88700332  .00000231  00000-0  32616-4 0  9990,2 51748  53.2171 121.8963 0001239  89.1807 270.9327 15.08841333 72616,6917.876,95.437,540.598,538.884,0.0
51748.0,STARLINK-3501,PAYLOAD,2023-06-13 06:49:35,15.08843796,0.0001262,53.2171,120.1122,88.9045,271.2092,5.2415e-05,5.46e-06,0.0,0 STARLINK-3501,1 51748U 22016AL  23164.28444022  .00000546  00000-0  52415-4 0  9994,2 51748  53.2171 120.1122 0001262  88.9045 271.2092 15.08843796 72676,6917.869,95.437,540.607,538.861,0.0
51748.0,STARLINK-3501,PAYLOAD,2023-06-13 21:08:04,15.08827359,0.0001255,53.2177,117.4353,92.6115,267.5021,0.00017922,2.565e-05,0.0,0 STARLINK-3501,1 51748U 22016AL  23164.88060590  .00002565  00000-0  17922-3 0  9990,2 51748  53.2177 117.4353 0001255  92.6115 267.5021 15.08827359 73835,6917.919,95.438,540.652,538.916,0.0
51748.0,STARLINK-3501,PAYLOAD,2023-06-14 06:40:22,15.08843242,0.0001324,53.2177,115.6508,95.2907,264.8237,5.4637e-05,5.82e-06,0.0,0 STARLINK-3501,1 51748U 22016AL  23165.27803960  .00000582  00000-0  54637-4 0  9992,2 51748  53.2177 115.6508 0001324  95.2907 264.8237 15.08843242 73896,6917.87,95.437,540.651,538.82,0.0
51748.0,STARLINK-3501,PAYLOAD,2023-06-14 20:58:51,15.08831145,0.0001252,53.217,112.9736,97.7617,262.3517,-5.5907e-05,-1.177e-05,0.0,0 STARLINK-3501,1 51748U 22016AL  23165.87421183 -.00001177  00000-0 -55907-4 0  9995,2 51748  53.2170 112.9736 0001252  97.7617 262.3517 15.08831145 72912,6917.907,95.438,540.639,538.906,0.0
51748.0,STARLINK-3501,PAYLOAD,2023-06-15 03:20:24,15.08831656,0.0001165,53.2174,111.7866,88.2246,271.8879,-2.8162e-05,-7.36e-06,0.0,0 STARLINK-3501,1 51748U 22016AL  23166.13917215 -.00000736  00000-0 -28162-4 0  9994,2 51748  53.2174 111.7866 0001165  88.2246 271.8879 15.08831656 74020,6917.906,95.438,540.577,538.965,0.0
51748.0,STARLINK-3501,PAYLOAD,2023-06-15 06:31:10,15.08833471,0.0001203,53.2178,111.1908,88.9185,271.1944,-4.4297e-05,-9.93e-06,0.0,0 STARLINK-3501,1 51748U 22016AL  23166.27165192 -.00000993  00000-0 -44297-4 0  9990,2 51748  53.2178 111.1908 0001203  88.9185 271.1944 15.08833471 72972,6917.9,95.438,540.598,538.933,0.0
